BEIDOU 3 (C01)          
1 36287U 10001A   22007.92865734 -.00000282  00000+0  00000+0 0  9994
2 36287   1.8128  45.9392 0001718  54.2175 121.9854  1.00274729 43909
BEIDOU 5 (C06)          
1 36828U 10036A   22007.89910412 -.00000072  00000+0  00000+0 0  9990
2 36828  54.1867 177.7030 0027043 177.5610 182.2613  1.00293104 41961
BEIDOU 6 (C04)          
1 37210U 10057A   22007.86080150 -.00000115  00000+0  00000+0 0  9991
2 37210   0.8809  49.5204 0005947 162.3062   5.3440  1.00268934 41025
BEIDOU 7 (C07)          
1 37256U 10068A   22008.23101159 -.00000206  00000+0  00000+0 0  9999
2 37256  50.4984 291.5605 0017874 191.6340 172.7200  1.00299802 40547
BEIDOU 8 (C08)          
1 37384U 11013A   22007.74958625 -.00000188  00000+0  00000+0 0  9994
2 37384  60.0622  55.8562 0021614 192.1516 234.6946  1.00297472 39416
BEIDOU 9 (C09)          
1 37763U 11038A   22007.95428413 -.00000027  00000+0  00000+0 0  9994
2 37763  54.4708 180.1756 0086902 225.1313 141.1168  1.00267854 38394
BEIDOU 10 (C10)         
1 37948U 11073A   22008.23481946 -.00000161  00000+0  00000+0 0  9999
2 37948  50.6123 291.1948 0078256 219.4799 136.0018  1.00288649 37145
BEIDOU 11 (C05)         
1 38091U 12008A   22007.91243473  .00000055  00000+0  00000+0 0  9994
2 38091   2.0045  71.6963 0006525 275.1288 147.7893  1.00269745 36223
BEIDOU 12 (C11)         
1 38250U 12018A   22007.85680201 -.00000093  00000+0  00000+0 0  9992
2 38250  56.7308 358.8645 0024887 253.5735 284.0111  1.86234360 66098
BEIDOU 13 (C12)         
1 38251U 12018B   22007.64932816 -.00000093  00000+0  00000+0 0  9992
2 38251  56.6527 358.2063 0015596 258.2939 184.4720  1.86234191 66095
BEIDOU 15 (C14)         
1 38775U 12050B   22007.24772345 -.00000005  00000+0  00000+0 0  9997
2 38775  55.3107 117.1142 0011872 323.4712  46.9539  1.86231244 63467
BEIDOU 16 (C02)         
1 38953U 12059A   22008.13382804 -.00000176  00000+0  00000+0 0  9999
2 38953   1.5946  84.5557 0011554 279.5489 235.7706  1.00271578 33792
BEIDOU 17 (C31)         
1 40549U 15019A   22008.29240852 -.00000193  00000+0  00000+0 0  9994
2 40549  52.1602 314.6156 0035745 191.5064 163.2654  1.00276204 24821
BEIDOU 18 (C57)         
1 40748U 15037A   22007.35456249 -.00000094  00000+0  00000+0 0  9990
2 40748  55.9077 357.1787 0004030 331.6578 183.1622  1.86233336 43911
BEIDOU 19 (C58)         
1 40749U 15037B   22007.64434785 -.00000095  00000+0  00000+0 0  9995
2 40749  55.9113 357.1591 0006789 303.5662 180.7219  1.86232154 43913
BEIDOU 20 (C18)         
1 40938U 15053A   22008.23380441 -.00000140  00000+0  00000+0 0  9999
2 40938  51.7474 277.7156 0042969 194.7436 175.2546  1.00282637 23096
BEIDOU IGSO-6 (C13)     
1 41434U 16021A   22008.08868912 -.00000167  00000+0  00000+0 0  9993
2 41434  57.8625  54.5034 0045088 216.3623 324.6054  1.00272954 21221
BEIDOU-2 G7 (C03)       
1 41586U 16037A   22007.86364309 -.00000356  00000+0  00000+0 0  9994
2 41586   1.6236  66.8005 0008336   2.3976  99.6216  1.00273643 20535
BEIDOU-3 M1 (C19)       
1 43001U 17069A   22007.53848620 -.00000005  00000+0  00000+0 0  9992
2 43001  55.4646 117.0839 0008265 284.2604  77.2420  1.86231607 28406
BEIDOU-3 M2 (C20)       
1 43002U 17069B   22007.90765572 -.00000007  00000+0  00000+0 0  9990
2 43002  55.4647 117.1070 0006496 310.0115 342.2008  1.86231304 28394
BEIDOU-3 M3 (C27)       
1 43107U 18003A   22007.49281149 -.00000096  00000+0  00000+0 0  9990
2 43107  55.3555 358.1633 0003630  37.4663 142.5978  1.86232464 27152
BEIDOU-3 M4 (C28)       
1 43108U 18003B   22007.43394015 -.00000096  00000+0  00000+0 0  9992
2 43108  55.3498 358.1560 0004150 258.7603 286.6241  1.86230894 27156
BEIDOU-3 M5 (C21)       
1 43207U 18018A   22007.60393234 -.00000006  00000+0  00000+0 0  9990
2 43207  55.4231 117.2010 0003976 341.6359  18.3415  1.86231464 26540
BEIDOU-3 M6 (C22)       
1 43208U 18018B   22007.67063051 -.00000006  00000+0  00000+0 0  9999
2 43208  55.4229 117.2036 0006238 296.6872  63.2405  1.86231602 26541
BEIDOU-3 M7 (C29)       
1 43245U 18029A   22007.71161825 -.00000096  00000+0  00000+0 0  9994
2 43245  55.2772 355.9356 0001440 285.4336 311.6568  1.86232574 25694
BEIDOU-3 M8 (C30)       
1 43246U 18029B   22007.28456407 -.00000096  00000+0  10000-3 0  9995
2 43246  55.2743 355.9806 0004466 337.8349  19.3387  1.86232848 25673
BEIDOU IGSO-7 (C16)     
1 43539U 18057A   22007.89215949 -.00000078  00000+0  00000+0 0  9997
2 43539  55.0656 177.1288 0040291 220.4311 143.3480  1.00259089 12905
BEIDOU-3 M9 (C23)       
1 43581U 18062A   22007.90583694  .00000020  00000+0  00000+0 0  9993
2 43581  54.3267 237.5856 0003139 315.3666 308.8897  1.86231917 23435
BEIDOU-3 M10 (C24)      
1 43582U 18062B   22007.77910992  .00000019  00000+0  00000+0 0  9992
2 43582  54.3260 237.5801 0006852  13.7750 257.1404  1.86232365 23435
BEIDOU-3 M11 (C25)      
1 43602U 18067A   22007.79129215  .00000022  00000+0  00000+0 0  9996
2 43602  54.4051 236.1805 0007936   9.8942 310.8937  1.86231568 22924
BEIDOU-3 M12 (C26)      
1 43603U 18067B   22007.30774221  .00000021  00000+0  00000+0 0  9996
2 43603  54.4022 236.1633 0005019   3.0768 263.9233  1.86231511 22930
BEIDOU-3 M13 (C32)      
1 43622U 18072A   22007.83613015 -.00000008  00000+0  00000+0 0  9990
2 43622  55.3892 116.7536 0005038 274.6062  16.4385  1.86231448 22450
BEIDOU-3 M14 (C33)      
1 43623U 18072B   22007.70572282 -.00000007  00000+0  00000+0 0  9996
2 43623  55.3911 116.7504 0002899 308.2104 345.6362  1.86231457 22453
BEIDOU-3 M15 (C34)      
1 43647U 18078A   22007.77881101 -.00000096  00000+0  10000-3 0  9991
2 43647  55.1703 356.1052 0006749 347.9877 250.1910  1.86232760 21961
BEIDOU-3 M16 (C35)      
1 43648U 18078B   22007.71692556 -.00000096  00000+0  00000+0 0  9995
2 43648  55.1668 356.1144 0004412 352.6590 112.1151  1.86232241 21984
BEIDOU-3 G1 (C59)       
1 43683U 18085A   22007.84723987 -.00000281  00000+0  00000+0 0  9995
2 43683   0.8458 195.3319 0004259  59.0871 297.8741  1.00265969 11808
BEIDOU-3 M17 (C36)      
1 43706U 18093A   22007.17624735  .00000019  00000+0  00000+0 0  9995
2 43706  54.4071 237.4833 0007782 286.2779  73.7084  1.86231926 21334
BEIDOU-3 M18 (C37)      
1 43707U 18093B   22007.43843348  .00000019  00000+0  00000+0 0  9998
2 43707  54.4083 237.4663 0007883 315.7037 311.1335  1.86232202 21321
BEIDOU-3 IGSO-1 (C38)   
1 44204U 19023A   22007.78720580 -.00000225  00000+0  00000+0 0  9995
2 44204  56.3208  54.7042 0022774 193.6124 259.9359  1.00259407 10102
BEIDOU-2 G8             
1 44231U 19027A   22008.26858943 -.00000248  00000+0  00000+0 0  9993
2 44231   0.4960  63.3894 0006181 149.1890 136.4424  1.00268899  9811
BEIDOU-3 IGSO-2 (C39)   
1 44337U 19035A   22007.85234132 -.00000086  00000+0  00000+0 0  9991
2 44337  55.1044 173.1618 0020765 176.9110 180.3572  1.00249343  9432
BEIDOU-3 M23 (C45)      
1 44542U 19061A   22007.66242822  .00000020  00000+0  10000-3 0  9994
2 44542  54.6335 237.5770 0009031 347.8485  21.5906  1.86231575 15591
BEIDOU-3 M24 (C46)      
1 44543U 19061B   22007.77727017  .00000020  00000+0  10000-3 0  9991
2 44543  54.6314 237.5437 0006044 346.2434  11.2775  1.86231606 15581
BEIDOU-3 IGSO-3         
1 44709U 19073A   22007.78079149 -.00000199  00000+0  00000+0 0  9998
2 44709  57.5240 298.0500 0017962 185.3706  22.7312  1.00255794  8196
BEIDOU-3 M21            
1 44793U 19078A   22007.06862444 -.00000096  00000+0  10000-3 0  9996
2 44793  55.0202 356.1717 0006320 354.6343  81.5515  1.86232259 14448
BEIDOU-3 M22            
1 44794U 19078B   22007.61936773 -.00000097  00000+0  00000+0 0  9991
2 44794  54.9940 356.1470 0004507 346.4496  10.3390  1.86232723 14442
BEIDOU-3 M19            
1 44864U 19090A   22007.76940218 -.00000007  00000+0  00000+0 0  9999
2 44864  55.3244 116.9766 0015650 263.3181  28.6113  1.86231750 14030
BEIDOU-3 M20            
1 44865U 19090B   22007.63810760 -.00000006  00000+0  00000+0 0  9993
2 44865  55.3263 117.0116 0013618 278.7240  15.0720  1.86231708 14005
BEIDOU-3 G2             
1 45344U 20017A   22007.84484056 -.00000141  00000+0  00000+0 0  9995
2 45344   2.1954 344.5923 0000216 139.3651   7.6037  1.00271993  7013
BEIDOU-3 G3             
1 45807U 20040A   22007.92272649 -.00000353  00000+0  00000+0 0  9992
2 45807   1.8098 300.0851 0008841 347.3425 262.7174  1.00272445  5827
